{"fetched_at":"2026-07-13T18:16:29.920Z","source":"https://celestrak.org/NORAD/elements/gp.php?GROUP=kuiper&FORMAT=JSON","constellation":"kuiper","records":[{"OBJECT_NAME":"KUIPER-00517","OBJECT_ID":"2026-140J","EPOCH":"2026-07-12T14:05:40.691328","CLASSIFICATION_TYPE":"U","MEAN_MOTION":15.38784525,"ECCENTRICITY":0.00105763,"INCLINATION":51.8775,"RA_OF_ASC_NODE":275.71,"ARG_OF_PERICENTER":281.2681,"MEAN_ANOMALY":78.7118,"EPHEMERIS_TYPE":0,"NORAD_CAT_ID":69600,"ELEMENT_SET_NO":999,"REV_AT_EPOCH":514,"BSTAR":0.00044127888,"MEAN_MOTION_DOT":0.00016857,"MEAN_MOTION_DDOT":0},{"OBJECT_NAME":"KUIPER-00520","OBJECT_ID":"2026-140K","EPOCH":"2026-07-13T06:13:49.774368","CLASSIFICATION_TYPE":"U","MEAN_MOTION":15.37628245,"ECCENTRICITY":0.00065991,"INCLINATION":51.8814,"RA_OF_ASC_NODE":272.7205,"ARG_OF_PERICENTER":349.739,"MEAN_ANOMALY":10.3462,"EPHEMERIS_TYPE":0,"NORAD_CAT_ID":69601,"ELEMENT_SET_NO":999,"REV_AT_EPOCH":524,"BSTAR":0.00042177671,"MEAN_MOTION_DOT":0.0001547,"MEAN_MOTION_DDOT":0},{"OBJECT_NAME":"KUIPER-00522","OBJECT_ID":"2026-140L","EPOCH":"2026-07-13T05:35:55.193280","CLASSIFICATION_TYPE":"U","MEAN_MOTION":15.38632171,"ECCENTRICITY":0.0013067,"INCLINATION":51.8804,"RA_OF_ASC_NODE":272.5428,"ARG_OF_PERICENTER":256.9721,"MEAN_ANOMALY":102.9808,"EPHEMERIS_TYPE":0,"NORAD_CAT_ID":69602,"ELEMENT_SET_NO":999,"REV_AT_EPOCH":524,"BSTAR":0.00063281779,"MEAN_MOTION_DOT":0.00024274,"MEAN_MOTION_DDOT":0},{"OBJECT_NAME":"KUIPER-00528","OBJECT_ID":"2026-140M","EPOCH":"2026-07-12T14:41:25.270656","CLASSIFICATION_TYPE":"U","MEAN_MOTION":15.37466391,"ECCENTRICITY":0.0006373,"INCLINATION":51.8788,"RA_OF_ASC_NODE":275.8726,"ARG_OF_PERICENTER":354.1957,"MEAN_ANOMALY":5.8955,"EPHEMERIS_TYPE":0,"NORAD_CAT_ID":69603,"ELEMENT_SET_NO":999,"REV_AT_EPOCH":514,"BSTAR":0.00038264,"MEAN_MOTION_DOT":0.0001392,"MEAN_MOTION_DDOT":0},{"OBJECT_NAME":"KUIPER-00532","OBJECT_ID":"2026-140N","EPOCH":"2026-07-12T13:21:47.259072","CLASSIFICATION_TYPE":"U","MEAN_MOTION":15.36593902,"ECCENTRICITY":0.0005509,"INCLINATION":51.8801,"RA_OF_ASC_NODE":276.247,"ARG_OF_PERICENTER":24.5719,"MEAN_ANOMALY":335.5529,"EPHEMERIS_TYPE":0,"NORAD_CAT_ID":69604,"ELEMENT_SET_NO":999,"REV_AT_EPOCH":513,"BSTAR":0.00027904,"MEAN_MOTION_DOT":0.00009751,"MEAN_MOTION_DDOT":0},{"OBJECT_NAME":"KUIPER-00533","OBJECT_ID":"2026-140P","EPOCH":"2026-07-13T05:56:02.934816","CLASSIFICATION_TYPE":"U","MEAN_MOTION":15.38253351,"ECCENTRICITY":0.00074597,"INCLINATION":51.8803,"RA_OF_ASC_NODE":272.6264,"ARG_OF_PERICENTER":319.8967,"MEAN_ANOMALY":40.1469,"EPHEMERIS_TYPE":0,"NORAD_CAT_ID":69605,"ELEMENT_SET_NO":999,"REV_AT_EPOCH":524,"BSTAR":0.00062408462,"MEAN_MOTION_DOT":0.0002359,"MEAN_MOTION_DDOT":0},{"OBJECT_NAME":"KUIPER-00534","OBJECT_ID":"2026-140Q","EPOCH":"2026-07-13T05:28:41.731392","CLASSIFICATION_TYPE":"U","MEAN_MOTION":15.38694322,"ECCENTRICITY":0.00132071,"INCLINATION":51.8822,"RA_OF_ASC_NODE":272.5153,"ARG_OF_PERICENTER":258.1641,"MEAN_ANOMALY":101.7866,"EPHEMERIS_TYPE":0,"NORAD_CAT_ID":69606,"ELEMENT_SET_NO":999,"REV_AT_EPOCH":524,"BSTAR":0.00043642742,"MEAN_MOTION_DOT":0.00016633,"MEAN_MOTION_DDOT":0},{"OBJECT_NAME":"KUIPER-00537","OBJECT_ID":"2026-140R","EPOCH":"2026-07-11T14:23:35.367360","CLASSIFICATION_TYPE":"U","MEAN_MOTION":15.34296234,"ECCENTRICITY":0.00110069,"INCLINATION":51.8811,"RA_OF_ASC_NODE":281.0851,"ARG_OF_PERICENTER":42.884,"MEAN_ANOMALY":317.3002,"EPHEMERIS_TYPE":0,"NORAD_CAT_ID":69607,"ELEMENT_SET_NO":999,"REV_AT_EPOCH":498,"BSTAR":0.00036402965,"MEAN_MOTION_DOT":0.00011929,"MEAN_MOTION_DDOT":0},{"OBJECT_NAME":"KUIPER-00538","OBJECT_ID":"2026-140S","EPOCH":"2026-07-12T13:00:57.560832","CLASSIFICATION_TYPE":"U","MEAN_MOTION":15.37691608,"ECCENTRICITY":0.00069128,"INCLINATION":51.8813,"RA_OF_ASC_NODE":276.1626,"ARG_OF_PERICENTER":334.9005,"MEAN_ANOMALY":25.1645,"EPHEMERIS_TYPE":0,"NORAD_CAT_ID":69608,"ELEMENT_SET_NO":999,"REV_AT_EPOCH":513,"BSTAR":0.0002602778,"MEAN_MOTION_DOT":0.00009408,"MEAN_MOTION_DDOT":0},{"OBJECT_NAME":"KUIPER-00540","OBJECT_ID":"2026-140T","EPOCH":"2026-07-13T04:52:33.809376","CLASSIFICATION_TYPE":"U","MEAN_MOTION":15.36940788,"ECCENTRICITY":0.00064729,"INCLINATION":51.8822,"RA_OF_ASC_NODE":273.0895,"ARG_OF_PERICENTER":17.6111,"MEAN_ANOMALY":342.5099,"EPHEMERIS_TYPE":0,"NORAD_CAT_ID":69609,"ELEMENT_SET_NO":999,"REV_AT_EPOCH":523,"BSTAR":0.00032332481,"MEAN_MOTION_DOT":0.00011496,"MEAN_MOTION_DDOT":0},{"OBJECT_NAME":"KUIPER-00541","OBJECT_ID":"2026-140U","EPOCH":"2026-07-13T05:55:47.741376","CLASSIFICATION_TYPE":"U","MEAN_MOTION":15.38559259,"ECCENTRICITY":0.00010295,"INCLINATION":51.8777,"RA_OF_ASC_NODE":272.6384,"ARG_OF_PERICENTER":91.7522,"MEAN_ANOMALY":268.3583,"EPHEMERIS_TYPE":0,"NORAD_CAT_ID":69610,"ELEMENT_SET_NO":999,"REV_AT_EPOCH":524,"BSTAR":0.0050692983,"MEAN_MOTION_DOT":0.00200903,"MEAN_MOTION_DDOT":0},{"OBJECT_NAME":"KUIPER-00542","OBJECT_ID":"2026-140V","EPOCH":"2026-07-12T14:18:17.735040","CLASSIFICATION_TYPE":"U","MEAN_MOTION":15.3825467,"ECCENTRICITY":0.00074992,"INCLINATION":51.8789,"RA_OF_ASC_NODE":275.7678,"ARG_OF_PERICENTER":296.9324,"MEAN_ANOMALY":63.0896,"EPHEMERIS_TYPE":0,"NORAD_CAT_ID":69611,"ELEMENT_SET_NO":999,"REV_AT_EPOCH":514,"BSTAR":0.00068381595,"MEAN_MOTION_DOT":0.00025895,"MEAN_MOTION_DDOT":0},{"OBJECT_NAME":"KUIPER-00543","OBJECT_ID":"2026-140W","EPOCH":"2026-07-12T11:48:50.605632","CLASSIFICATION_TYPE":"U","MEAN_MOTION":15.36803491,"ECCENTRICITY":0.00077995,"INCLINATION":51.8787,"RA_OF_ASC_NODE":276.5601,"ARG_OF_PERICENTER":25.6702,"MEAN_ANOMALY":334.467,"EPHEMERIS_TYPE":0,"NORAD_CAT_ID":69612,"ELEMENT_SET_NO":999,"REV_AT_EPOCH":512,"BSTAR":0.00047469651,"MEAN_MOTION_DOT":0.00017002,"MEAN_MOTION_DDOT":0},{"OBJECT_NAME":"KUIPER-00544","OBJECT_ID":"2026-140X","EPOCH":"2026-07-13T06:00:04.433184","CLASSIFICATION_TYPE":"U","MEAN_MOTION":15.38150344,"ECCENTRICITY":0.00066092,"INCLINATION":51.879,"RA_OF_ASC_NODE":272.6497,"ARG_OF_PERICENTER":312.8991,"MEAN_ANOMALY":47.1441,"EPHEMERIS_TYPE":0,"NORAD_CAT_ID":69613,"ELEMENT_SET_NO":999,"REV_AT_EPOCH":524,"BSTAR":0.00039838415,"MEAN_MOTION_DOT":0.00014844,"MEAN_MOTION_DDOT":0},{"OBJECT_NAME":"KUIPER-00546","OBJECT_ID":"2026-140Y","EPOCH":"2026-07-13T05:29:29.501952","CLASSIFICATION_TYPE":"U","MEAN_MOTION":15.38849316,"ECCENTRICITY":0.00142442,"INCLINATION":51.8785,"RA_OF_ASC_NODE":272.5133,"ARG_OF_PERICENTER":255.9155,"MEAN_ANOMALY":104.025,"EPHEMERIS_TYPE":0,"NORAD_CAT_ID":69614,"ELEMENT_SET_NO":999,"REV_AT_EPOCH":524,"BSTAR":0.00052340066,"MEAN_MOTION_DOT":0.00020151,"MEAN_MOTION_DDOT":0},{"OBJECT_NAME":"KUIPER-00547","OBJECT_ID":"2026-140Z","EPOCH":"2026-07-13T05:51:12.911616","CLASSIFICATION_TYPE":"U","MEAN_MOTION":15.37891779,"ECCENTRICITY":0.00107314,"INCLINATION":51.8822,"RA_OF_ASC_NODE":272.6206,"ARG_OF_PERICENTER":284.8854,"MEAN_ANOMALY":75.0944,"EPHEMERIS_TYPE":0,"NORAD_CAT_ID":69615,"ELEMENT_SET_NO":999,"REV_AT_EPOCH":524,"BSTAR":0.00038864784,"MEAN_MOTION_DOT":0.00014362,"MEAN_MOTION_DDOT":0}]}
